start=new Date('2022-01-03T00:00:00.000Z').valueOf();
sats=[{"REF_FRAME":"TEME","NORAD_CAT_ID":"45694","EPHEMERIS_TYPE":"0","EPOCH":"2022-01-02T15:37:01.674048","DECAY_DATE":null,"PERIOD":"95.592","RA_OF_ASC_NODE":"71.7592","SEMIMAJOR_AXIS":"6925.350","TIME_SYSTEM":"UTC","OBJECT_ID":"2020-035AP","MEAN_MOTION_DOT":"0.00003045","BSTAR":"0.00022320000000","ECCENTRICITY":"0.00012050","PERIAPSIS":"546.381","OBJECT_TYPE":"PAYLOAD","ELEMENT_SET_NO":"999","FILE":"3255249","GP_ID":"192942179","OBJECT_NAME":"STARLINK-1419","RCS_SIZE":"LARGE","CENTER_NAME":"EARTH","SITE":"AFETR","TLE_LINE1":"1 45694U 20035AP  22002.65071382  .00003045  00000-0  22320-3 0  9990","LAUNCH_DATE":"2020-06-04","MEAN_ELEMENT_THEORY":"SGP4","MEAN_ANOMALY":"284.3165","MEAN_MOTION_DDOT":"0.0000000000000","ARG_OF_PERICENTER":"75.7958","REV_AT_EPOCH":"8870","COUNTRY_CODE":"US","CLASSIFICATION_TYPE":"U","APOAPSIS":"548.050","TLE_LINE2":"2 45694  53.0546  71.7592 0001205  75.7958 284.3165 15.06399389 88708","INCLINATION":"53.0546","MEAN_MOTION":"15.06399389"},{"OBJECT_NAME":"STARLINK-1420","GP_ID":"192916436","FILE":"3255248","CENTER_NAME":"EARTH","RCS_SIZE":"LARGE","TLE_LINE1":"1 45695U 20035AQ  22002.44614163  .00001959  00000-0  15040-3 0  9991","SITE":"AFETR","MEAN_ELEMENT_THEORY":"SGP4","MEAN_ANOMALY":"274.1508","LAUNCH_DATE":"2020-06-04","REV_AT_EPOCH":"8896","ARG_OF_PERICENTER":"85.9627","MEAN_MOTION_DDOT":"0.0000000000000","CLASSIFICATION_TYPE":"U","COUNTRY_CODE":"US","TLE_LINE2":"2 45695  53.0545  52.6770 0001274  85.9627 274.1508 15.06399848 88962","APOAPSIS":"548.096","MEAN_MOTION":"15.06399848","INCLINATION":"53.0545","EPHEMERIS_TYPE":"0","NORAD_CAT_ID":"45695","REF_FRAME":"TEME","DECAY_DATE":null,"EPOCH":"2022-01-02T10:42:26.636832","OBJECT_ID":"2020-035AQ","TIME_SYSTEM":"UTC","RA_OF_ASC_NODE":"52.6770","PERIOD":"95.592","SEMIMAJOR_AXIS":"6925.349","BSTAR":"0.00015040000000","MEAN_MOTION_DOT":"0.00001959","ECCENTRICITY":"0.00012740","PERIAPSIS":"546.332","OBJECT_TYPE":"PAYLOAD","ELEMENT_SET_NO":"999"},{"EPHEMERIS_TYPE":"0","REF_FRAME":"TEME","NORAD_CAT_ID":"45696","OBJECT_ID":"2020-035AR","RA_OF_ASC_NODE":"71.7443","PERIOD":"95.591","SEMIMAJOR_AXIS":"6925.281","TIME_SYSTEM":"UTC","DECAY_DATE":null,"EPOCH":"2022-01-02T15:42:18.844992","MEAN_MOTION_DOT":"-0.00003301","ECCENTRICITY":"0.00011890","BSTAR":"-0.00020268000000","ELEMENT_SET_NO":"999","PERIAPSIS":"546.322","OBJECT_TYPE":"PAYLOAD","CENTER_NAME":"EARTH","RCS_SIZE":"LARGE","OBJECT_NAME":"STARLINK-1422","GP_ID":"192941178","FILE":"3255249","LAUNCH_DATE":"2020-06-04","MEAN_ANOMALY":"284.3573","MEAN_ELEMENT_THEORY":"SGP4","TLE_LINE1":"1 45696U 20035AR  22002.65438478 -.00003301  00000-0 -20268-3 0  9991","SITE":"AFETR","CLASSIFICATION_TYPE":"U","COUNTRY_CODE":"US","ARG_OF_PERICENTER":"75.7548","REV_AT_EPOCH":"8870","MEAN_MOTION_DDOT":"0.0000000000000","MEAN_MOTION":"15.06422184","INCLINATION":"53.0546","TLE_LINE2":"2 45696  53.0546  71.7443 0001189  75.7548 284.3573 15.06422184 88704","APOAPSIS":"547.969"},{"ELEMENT_SET_NO":"999","PERIAPSIS":"546.246","OBJECT_TYPE":"PAYLOAD","MEAN_MOTION_DOT":"0.00004316","ECCENTRICITY":"0.00012840","BSTAR":"0.00030822000000","OBJECT_ID":"2020-035AS","TIME_SYSTEM":"UTC","SEMIMAJOR_AXIS":"6925.270","PERIOD":"95.591","RA_OF_ASC_NODE":"51.8553","DECAY_DATE":null,"EPOCH":"2022-01-02T15:07:47.435232","EPHEMERIS_TYPE":"0","NORAD_CAT_ID":"45697","REF_FRAME":"TEME","INCLINATION":"53.0556","MEAN_MOTION":"15.06425487","TLE_LINE2":"2 45697  53.0556  51.8553 0001284  88.5001 271.6135 15.06425487 88992","APOAPSIS":"548.025","CLASSIFICATION_TYPE":"U","COUNTRY_CODE":"US","REV_AT_EPOCH":"8899","ARG_OF_PERICENTER":"88.5001","MEAN_MOTION_DDOT":"0.0000000000000","MEAN_ANOMALY":"271.6135","MEAN_ELEMENT_THEORY":"SGP4","LAUNCH_DATE":"2020-06-04","TLE_LINE1":"1 45697U 20035AS  22002.63041013  .00004316  00000-0  30822-3 0  9997","SITE":"AFETR","CENTER_NAME":"EARTH","RCS_SIZE":"LARGE","OBJECT_NAME":"STARLINK-1351","GP_ID":"192941428","FILE":"3255249"},{"EPOCH":"2022-01-02T10:05:17.212704","DECAY_DATE":null,"TIME_SYSTEM":"UTC","SEMIMAJOR_AXIS":"6925.380","PERIOD":"95.593","RA_OF_ASC_NODE":"52.8076","OBJECT_ID":"2020-035AT","NORAD_CAT_ID":"45698","REF_FRAME":"TEME","EPHEMERIS_TYPE":"0","PERIAPSIS":"546.312","OBJECT_TYPE":"PAYLOAD","ELEMENT_SET_NO":"999","MEAN_MOTION_DOT":"0.00000627","ECCENTRICITY":"0.00013480","BSTAR":"0.00006098600000","SITE":"AFETR","TLE_LINE1":"1 45698U 20035AT  22002.42033811  .00000627  00000-0  60986-4 0  9998","MEAN_ANOMALY":"281.9114","MEAN_ELEMENT_THEORY":"SGP4","LAUNCH_DATE":"2020-06-04","FILE":"3255248","GP_ID":"192918188","OBJECT_NAME":"STARLINK-1370","RCS_SIZE":"LARGE","CENTER_NAME":"EARTH","APOAPSIS":"548.179","TLE_LINE2":"2 45698  53.0551  52.8076 0001348  78.2026 281.9114 15.06389687 88962","INCLINATION":"53.0551","MEAN_MOTION":"15.06389687","MEAN_MOTION_DDOT":"0.0000000000000","REV_AT_EPOCH":"8896","ARG_OF_PERICENTER":"78.2026","COUNTRY_CODE":"US","CLASSIFICATION_TYPE":"U"},{"FILE":"3255248","GP_ID":"192916936","OBJECT_NAME":"STARLINK-1398","RCS_SIZE":"LARGE","CENTER_NAME":"EARTH","SITE":"AFETR","TLE_LINE1":"1 45699U 20035AU  22002.40928085  .00001387  00000-0  11196-3 0  9995","MEAN_ELEMENT_THEORY":"SGP4","MEAN_ANOMALY":"281.2766","LAUNCH_DATE":"2020-06-04","MEAN_MOTION_DDOT":"0.0000000000000","REV_AT_EPOCH":"8895","ARG_OF_PERICENTER":"78.8389","COUNTRY_CODE":"US","CLASSIFICATION_TYPE":"U","APOAPSIS":"548.235","TLE_LINE2":"2 45699  53.0565  52.8425 0001475  78.8389 281.2766 15.06400001 88954","MEAN_MOTION":"15.06400001","INCLINATION":"53.0565","NORAD_CAT_ID":"45699","REF_FRAME":"TEME","EPHEMERIS_TYPE":"0","EPOCH":"2022-01-02T09:49:21.865440","DECAY_DATE":null,"TIME_SYSTEM":"UTC","SEMIMAJOR_AXIS":"6925.349","PERIOD":"95.592","RA_OF_ASC_NODE":"52.8425","OBJECT_ID":"2020-035AU","BSTAR":"0.00011196000000","MEAN_MOTION_DOT":"0.00001387","ECCENTRICITY":"0.00014750","OBJECT_TYPE":"PAYLOAD","PERIAPSIS":"546.192","ELEMENT_SET_NO":"999"},{"TLE_LINE2":"2 45700  53.0561  51.9822 0001182  96.1942 263.9181 15.06400201 88980","APOAPSIS":"548.032","INCLINATION":"53.0561","MEAN_MOTION":"15.06400201","ARG_OF_PERICENTER":"96.1942","REV_AT_EPOCH":"8898","MEAN_MOTION_DDOT":"0.0000000000000","CLASSIFICATION_TYPE":"U","COUNTRY_CODE":"US","TLE_LINE1":"1 45700U 20035AV  22002.60463128  .00003035  00000-0  22252-3 0  9999","SITE":"AFETR","LAUNCH_DATE":"2020-06-04","MEAN_ELEMENT_THEORY":"SGP4","MEAN_ANOMALY":"263.9181","OBJECT_NAME":"STARLINK-1400","FILE":"3255249","GP_ID":"192941679","CENTER_NAME":"EARTH","RCS_SIZE":"LARGE","PERIAPSIS":"546.394","OBJECT_TYPE":"PAYLOAD","ELEMENT_SET_NO":"999","BSTAR":"0.00022252000000","MEAN_MOTION_DOT":"0.00003035","ECCENTRICITY":"0.00011820","DECAY_DATE":null,"EPOCH":"2022-01-02T14:30:40.142592","OBJECT_ID":"2020-035AV","SEMIMAJOR_AXIS":"6925.348","PERIOD":"95.592","RA_OF_ASC_NODE":"51.9822","TIME_SYSTEM":"UTC","EPHEMERIS_TYPE":"0","REF_FRAME":"TEME","NORAD_CAT_ID":"45700"},{"MEAN_MOTION_DDOT":"0.0000000000000","ARG_OF_PERICENTER":"77.3742","REV_AT_EPOCH":"8897","COUNTRY_CODE":"US","CLASSIFICATION_TYPE":"U","APOAPSIS":"548.079","TLE_LINE2":"2 45701  53.0541  52.1251 0001258  77.3742 282.7388 15.06401907 88972","INCLINATION":"53.0541","MEAN_MOTION":"15.06401907","GP_ID":"192917938","FILE":"3255248","OBJECT_NAME":"STARLINK-1403","RCS_SIZE":"LARGE","CENTER_NAME":"EARTH","SITE":"AFETR","TLE_LINE1":"1 45701U 20035AW  22002.56777057  .00000873  00000-0  77505-4 0  9993","LAUNCH_DATE":"2020-06-04","MEAN_ANOMALY":"282.7388","MEAN_ELEMENT_THEORY":"SGP4","ECCENTRICITY":"0.00012580","MEAN_MOTION_DOT":"0.00000873","BSTAR":"0.00007750500000","OBJECT_TYPE":"PAYLOAD","PERIAPSIS":"546.337","ELEMENT_SET_NO":"999","REF_FRAME":"TEME","NORAD_CAT_ID":"45701","EPHEMERIS_TYPE":"0","EPOCH":"2022-01-02T13:37:35.377248","DECAY_DATE":null,"PERIOD":"95.592","RA_OF_ASC_NODE":"52.1251","SEMIMAJOR_AXIS":"6925.343","TIME_SYSTEM":"UTC","OBJECT_ID":"2020-035AW"},{"ELEMENT_SET_NO":"999","OBJECT_TYPE":"PAYLOAD","PERIAPSIS":"546.414","MEAN_MOTION_DOT":"0.00000489","ECCENTRICITY":"0.00011950","BSTAR":"0.00005172300000","OBJECT_ID":"2020-035AX","TIME_SYSTEM":"UTC","SEMIMAJOR_AXIS":"6925.377","PERIOD":"95.593","RA_OF_ASC_NODE":"53.1099","DECAY_DATE":null,"EPOCH":"2022-01-02T08:24:26.881632","EPHEMERIS_TYPE":"0","NORAD_CAT_ID":"45702","REF_FRAME":"TEME","MEAN_MOTION":"15.06390803","INCLINATION":"53.0551","TLE_LINE2":"2 45702  53.0551  53.1099 0001195  76.7136 283.3986 15.06390803 88945","APOAPSIS":"548.069","CLASSIFICATION_TYPE":"U","COUNTRY_CODE":"US","REV_AT_EPOCH":"8894","ARG_OF_PERICENTER":"76.7136","MEAN_MOTION_DDOT":"0.0000000000000","MEAN_ANOMALY":"283.3986","MEAN_ELEMENT_THEORY":"SGP4","LAUNCH_DATE":"2020-06-04","TLE_LINE1":"1 45702U 20035AX  22002.35031113  .00000489  00000-0  51723-4 0  9994","SITE":"AFETR","CENTER_NAME":"EARTH","RCS_SIZE":"LARGE","OBJECT_NAME":"STARLINK-1405","FILE":"3255248","GP_ID":"192917689"},{"TLE_LINE2":"2 45703  53.0548  52.8381 0001281  81.8376 278.2758 15.06398646 88955","APOAPSIS":"548.105","INCLINATION":"53.0548","MEAN_MOTION":"15.06398646","ARG_OF_PERICENTER":"81.8376","REV_AT_EPOCH":"8895","MEAN_MOTION_DDOT":"0.0000000000000","CLASSIFICATION_TYPE":"U","COUNTRY_CODE":"US","TLE_LINE1":"1 45703U 20035AY  22002.41296881  .00002054  00000-0  15672-3 0  9999","SITE":"AFETR","LAUNCH_DATE":"2020-06-04","MEAN_ANOMALY":"278.2758","MEAN_ELEMENT_THEORY":"SGP4","OBJECT_NAME":"STARLINK-1407","FILE":"3255248","GP_ID":"192916437","CENTER_NAME":"EARTH","RCS_SIZE":"LARGE","PERIAPSIS":"546.331","OBJECT_TYPE":"PAYLOAD","ELEMENT_SET_NO":"999","ECCENTRICITY":"0.00012810","MEAN_MOTION_DOT":"0.00002054","BSTAR":"0.00015672000000","DECAY_DATE":null,"EPOCH":"2022-01-02T09:54:40.505184","OBJECT_ID":"2020-035AY","RA_OF_ASC_NODE":"52.8381","PERIOD":"95.592","SEMIMAJOR_AXIS":"6925.353","TIME_SYSTEM":"UTC","EPHEMERIS_TYPE":"0","REF_FRAME":"TEME","NORAD_CAT_ID":"45703"}];
